EOS-7                   
1 55562U 23019A   23058.30239385  .00044286  00000+0  10199-2 0  9994
2 55562  37.1854   6.9124 0007820 124.9544 235.1951 15.41627169  2630
AZAADISAT-2             
1 55563U 23019B   23058.28812635  .00050484  00000+0  11050-2 0  9991
2 55563  37.1847   6.7917 0011904 143.3853 216.7722 15.43063688  2641
JANUS-1                 
1 55564U 23019C   23058.28901190  .00117539  00000+0  24941-2 0  9995
2 55564  37.1859   6.8022 0009018 151.0648 209.0614 15.43712550  2648
SS3 R/B                 
1 55565U 23019D   23058.28936000  .00044105  00000+0  77394-3 0  9993
2 55565  37.1854   5.8459 0039044 130.1499 230.2692 15.48704119  2640
VTM R/B                 
1 55566U 23019E   23058.26562853  .00027866  00000+0  44759-3 0  9997
2 55566  37.9014   7.7560 0050799 154.3009 206.0305 15.50707833  2647
2023-019F               
1 55567U 23019F   23058.19390613  .00898350  00000+0  78434-2 0  9993
2 55567  37.1839   5.0343 0041066 145.3577 214.9876 15.64373744  2154
2023-019G               
1 55568U 23019G   23058.28084572  .00489711  00000+0  52371-2 0  9997
2 55568  37.1914   4.8332 0042536 143.0147 217.3563 15.60351024  2653
STARLINK-5749           
1 55569U 23020A   23058.02846262  .00022045  00000+0  17108-3 0  9997
2 55569  42.9989 266.9641 0002143 272.7353  87.3269 15.71358280  3419
STARLINK-5737           
1 55570U 23020B   23058.02856588  .00032388  00000+0  24915-3 0  9996
2 55570  42.9991 266.9661 0002227 285.1378  74.9243 15.71384334  2348
STARLINK-5739           
1 55571U 23020C   23058.02835644  .00077858  00000+0  59109-3 0  9991
2 55571  42.9982 266.9615 0002153 251.8129 108.2505 15.71376265  2346
STARLINK-5732           
1 55572U 23020D   23058.02814676  .00084640  00000+0  64198-3 0  9995
2 55572  42.9997 266.9619 0002708 253.6945 106.3625 15.71366583  2343
STARLINK-5738           
1 55573U 23020E   23058.02825124  .00093081  00000+0  70478-3 0  9993
2 55573  42.9985 266.9619 0002290 266.2134  93.8472 15.71373330  2345
STARLINK-5747           
1 55574U 23020F   23058.02783130  .00093403  00000+0  70721-3 0  9993
2 55574  42.9996 266.9589 0002093 258.4604 101.6029 15.71372733  2342
STARLINK-5745           
1 55575U 23020G   23057.83735738  .00055689  00000+0  42460-3 0  9996
2 55575  42.9993 268.1105 0002011 277.0262  83.0377 15.71392617  2314
STARLINK-5751           
1 55576U 23020H   23058.01986975  .00078026  00000+0  54717-3 0  9997
2 55576  43.0005 266.8957 0002856 271.1104  88.9437 15.73242084  2346
STARLINK-5752           
1 55577U 23020J   23058.02793409  .00041545  00000+0  31838-3 0  9992
2 55577  42.9988 266.9589 0001863 263.1080  96.9576 15.71377025  2343
STARLINK-5713           
1 55578U 23020K   23058.02751507  .00095237  00000+0  72082-3 0  9999
2 55578  42.9992 266.9565 0002330 260.5194  99.5411 15.71373825  2341
STARLINK-5754           
1 55579U 23020L   23058.02678040  .00026656  00000+0  20598-3 0  9994
2 55579  42.9988 266.9509 0002183 266.9180  93.1438 15.71364066  2342
STARLINK-5757           
1 55580U 23020M   23058.58334491 -.00028996  00000+0 -21824-3 0  9990
2 55580  42.9995 263.4153 0001340 263.5456  80.5750 15.71376999  1302
STARLINK-5753           
1 55581U 23020N   23058.02762055  .00044608  00000+0  34184-3 0  9990
2 55581  42.9988 266.9564 0002312 246.5233 113.5392 15.71350679  2344
STARLINK-5741           
1 55582U 23020P   23057.95362395 -.00168007  00000+0 -12027-2 0  9998
2 55582  43.0012 267.2571 0000958 264.9619  95.1140 15.73245624  2333
STARLINK-5742           
1 55583U 23020Q   23058.02720065  .00087128  00000+0  66057-3 0  9995
2 55583  42.9992 266.9532 0002341 257.8205 102.2400 15.71367093  2345
STARLINK-5736           
1 55584U 23020R   23057.96342473  .00078449  00000+0  59668-3 0  9997
2 55584  42.9996 267.3362 0001331 300.4495  59.6241 15.71330953  2332
STARLINK-5769           
1 55585U 23020S   23058.58334491 -.00000150  00000+0  23054-5 0  9995
2 55585  43.0026 263.4656 0001666 268.0135  58.9491 15.71347797  1302
STARLINK-5767           
1 55586U 23020T   23058.02667332  .00043040  00000+0  32960-3 0  9996
2 55586  42.9996 266.9500 0002240 264.2140  95.8473 15.71380060  2341
STARLINK-5727           
1 55587U 23020U   23058.02688684  .00004038  00000+0  34229-4 0  9995
2 55587  42.9991 266.9511 0002090 255.6529 104.4106 15.71352882  2348
STARLINK-5728           
1 55588U 23020V   23058.02635649  .00043575  00000+0  33364-3 0  9996
2 55588  42.9997 266.9482 0002802 270.5712  89.4834 15.71378366  2348
STARLINK-5697           
1 55589U 23020W   23058.02656852  .00089560  00000+0  67864-3 0  9992
2 55589  42.9992 266.9489 0002291 262.0547  98.0060 15.71369812  2348
STARLINK-5762           
1 55590U 23020X   23058.02614804  .00093995  00000+0  71154-3 0  9999
2 55590  43.0002 266.9464 0002519 267.5093  92.5487 15.71374559  2342
STARLINK-5760           
1 55591U 23020Y   23058.02646621  .00086479  00000+0  65595-3 0  9993
2 55591  42.9994 266.9484 0002246 256.8671 103.1946 15.71359231  2342
STARLINK-5759           
1 55592U 23020Z   23058.02593712  .00080443  00000+0  61046-3 0  9998
2 55592  43.0001 266.9450 0002399 269.1990  90.8602 15.71373971  2345
STARLINK-5703           
1 55593U 23020AA  23058.02624423  .00002082  00000+0  19329-4 0  9994
2 55593  42.9992 266.9461 0001884 256.9150 103.1508 15.71343520  2345
STARLINK-5750           
1 55594U 23020AB  23058.02583271  .00090958  00000+0  68878-3 0  9991
2 55594  42.9998 266.9443 0002050 264.3617  95.7017 15.71380045  2343
STARLINK-5740           
1 55595U 23020AC  23058.02604238  .00038658  00000+0  29689-3 0  9995
2 55595  42.9992 266.9448 0002375 259.6104 100.4496 15.71352770  2340
STARLINK-5729           
1 55596U 23020AD  23058.02551484  .00044427  00000+0  34001-3 0  9995
2 55596  43.0001 266.9413 0002471 261.3311  98.7277 15.71382745  2344
STARLINK-5743           
1 55597U 23020AE  23058.58334491  .00061732  00000+0  47123-3 0  9991
2 55597  43.0030 263.4641 0001699 235.3759  92.1928 15.71329455  1305
STARLINK-5756           
1 55598U 23020AF  23058.00596031  .00030542  00000+0  19861-3 0  9992
2 55598  43.0008 266.7847 0003313 272.1815  87.8675 15.75333784  2341
STARLINK-5761           
1 55599U 23020AG  23058.58334491 -.00011378  00000+0 -77402-4 0  9990
2 55599  43.0004 263.1446 0002339 250.9630 202.2189 15.73089024  1301
STARLINK-5755           
1 55600U 23020AH  23058.02509548  .00036588  00000+0  28099-3 0  9994
2 55600  43.0007 266.9384 0002216 263.6940  96.3675 15.71374643  2347
STARLINK-5744           
1 55601U 23020AJ  23058.02541117  .00045296  00000+0  34664-3 0  9994
2 55601  43.0000 266.9402 0002797 274.4436  85.6112 15.71376046  2342
STARLINK-5764           
1 55602U 23020AK  23058.58334491  .00058158  00000+0  41310-3 0  9998
2 55602  43.0002 263.0958 0001381 251.7771 220.8667 15.73048564  1303
STARLINK-5735           
1 55603U 23020AL  23058.02531971  .00092985  00000+0  70443-3 0  9995
2 55603  42.9998 266.9398 0002378 251.5762 108.4847 15.71360961  2343
STARLINK-5748           
1 55604U 23020AM  23057.95647827  .00048383  00000+0  35534-3 0  9990
2 55604  43.0002 267.2806 0001558 289.7031  70.3669 15.72328983  2338
STARLINK-5725           
1 55605U 23020AN  23058.02499132  .00010600  00000+0  84138-4 0  9990
2 55605  42.9999 266.9368 0001995 263.5647  96.4994 15.71366806  2345
STARLINK-5723           
1 55606U 23020AP  23058.58334491  .00317252  44849-4  10352-2 0  9990
2 55606  43.0002 262.0787 0016374  43.1748 115.8960 15.89651802  1302
STARLINK-5700           
1 55607U 23020AQ  23058.02467691  .00092882  00000+0  70319-3 0  9994
2 55607  42.9998 266.9347 0001839 257.1221 102.9441 15.71377818  2342
STARLINK-5726           
1 55608U 23020AR  23058.02446443  .00074256  00000+0  56393-3 0  9998
2 55608  43.0003 266.9330 0002111 254.0823 105.9812 15.71385468  2347
STARLINK-5719           
1 55609U 23020AS  23058.02488465  .00040847  00000+0  31305-3 0  9994
2 55609  43.0000 266.9358 0002164 260.4819  99.5804 15.71381675  2344
STARLINK-5722           
1 55610U 23020AT  23058.02404281  .00047748  00000+0  36493-3 0  9990
2 55610  43.0000 266.9301 0002668 275.6377  84.4186 15.71388371  2346
STARLINK-5730           
1 55611U 23020AU  23058.02414886  .00049300  00000+0  37663-3 0  9999
2 55611  43.0003 266.9306 0001972 272.7252  87.3390 15.71389066  2343
STARLINK-5734           
1 55612U 23020AV  23058.02393774  .00036021  00000+0  27664-3 0  9998
2 55612  42.9997 266.9287 0002037 249.1794 110.8856 15.71380650  2343
STARLINK-5715           
1 55613U 23020AW  23058.02436061  .00064610  00000+0  49181-3 0  9999
2 55613  42.9999 266.9321 0001768 266.6255  93.4411 15.71380095  2347
STARLINK-5714           
1 55614U 23020AX  23058.01762982  .00098414  00000+0  68545-3 0  9997
2 55614  43.0000 266.8792 0004072 280.7493  79.2917 15.73310741  2342
STARLINK-5712           
1 55615U 23020AY  23058.02383303  .00060871  00000+0  46395-3 0  9990
2 55615  43.0000 266.9284 0003023 266.1168  93.9354 15.71366864  2345
STARLINK-5710           
1 55616U 23020AZ  23058.02341241  .00048379  00000+0  36974-3 0  9997
2 55616  43.0003 266.9251 0002281 270.9881  89.0725 15.71385348  2349
STARLINK-5721           
1 55617U 23020BA  23058.02362274  .00011993  00000+0  94710-4 0  9992
2 55617  43.0002 266.9259 0001751 270.1214  89.9453 15.71370870  2341
STARLINK-5717           
1 55618U 23020BB  23057.95975043  .00070176  00000+0  53413-3 0  9990
2 55618  43.0006 267.3083 0001720 271.6276  88.4394 15.71353561  2331
STARLINK-5720           
1 55619U 23020BC  23058.02320822  .00073134  00000+0  55515-3 0  9991
2 55619  43.0004 266.9225 0001807 267.2599  92.8062 15.71402466  2349
STARLINK-5718           
1 55620U 23020BD  23058.02299330  .00072525  00000+0  55135-3 0  9993
2 55620  42.9998 266.9221 0002290 263.0344  97.0263 15.71369056  2343
